QIANFAN-73              
1 63159U 25046A   25356.08562961  .00000124  00000+0  17236-3 0  9997
2 63159  88.9770 319.0552 0016891  94.9860 265.3220 13.50979242 48678
QIANFAN-74              
1 63160U 25046B   25356.14308139  .00000120  00000+0  16748-3 0  9994
2 63160  88.9771 318.9380 0002021  74.6392 285.4983 13.50976079 48745
QIANFAN-75              
1 63161U 25046C   25356.13036302  .00000165  00000+0  23668-3 0  9992
2 63161  88.9772 319.1731 0017990  97.5641 262.7554 13.50981450 48619
QIANFAN-76              
1 63162U 25046D   25356.12701115  .00000166  00000+0  23788-3 0  9997
2 63162  88.9771 319.1540 0015549  97.7719 262.5199 13.50981837 48626
QIANFAN-77              
1 63163U 25046E   25356.14656456  .00000333  00000+0  23281-3 0  9991
2 63163  88.9772 317.0818 0016836  55.1435 305.1322 13.96094764 49768
QIANFAN-78              
1 63164U 25046F   25356.09383161  .00000128  00000+0  17871-3 0  9996
2 63164  88.9770 319.0213 0016885 100.0293 260.2764 13.50979617 48695
QIANFAN-79              
1 63165U 25046G   25356.12248159  .00000136  00000+0  19219-3 0  9995
2 63165  88.9774 319.1263 0016610  98.3757 261.9278 13.50981322 48645
QIANFAN-80              
1 63166U 25046H   25356.13901424  .00000142  00000+0  20156-3 0  9997
2 63166  88.9772 318.8312 0015515 101.9300 258.3592 13.50979303 48806
